OBJECT_NAME,OBJECT_ID,EPOCH,MEAN_MOTION,ECCENTRICITY,INCLINATION,RA_OF_ASC_NODE,ARG_OF_PERICENTER,MEAN_ANOMALY,EPHEMERIS_TYPE,CLASSIFICATION_TYPE,NORAD_CAT_ID,ELEMENT_SET_NO,REV_AT_EPOCH,BSTAR,MEAN_MOTION_DOT,MEAN_MOTION_DDOT
GPS BIIR-5  (PRN 22),2000-040A,2026-06-09T07:48:09.773568,2.00557610,.01211346,54.8524,215.4748,302.4295,64.7131,0,U,26407,999,18979,0,.6E-6,0
GPS BIIR-8  (PRN 16),2003-005A,2026-06-09T05:14:17.873952,2.00560980,.0147952,54.8834,215.2857,53.0758,12.8205,0,U,27663,999,17115,0,.6E-6,0
GPS BIIR-11 (PRN 19),2004-009A,2026-06-09T09:25:58.802016,2.00554955,.01158187,54.8364,276.0023,172.7383,172.6693,0,U,28190,999,16278,0,-.4E-6,0
GPS BIIR-13 (PRN 02),2004-045A,2026-06-07T08:29:39.413760,2.00555496,.0169828,55.1426,325.2921,316.1566,61.9153,0,U,28474,999,15823,0,-.59E-6,0
GPS BIIRM-1 (PRN 17),2005-038A,2026-06-09T09:06:35.109792,2.00566187,.01278149,54.8846,273.4928,296.0939,67.9233,0,U,28874,999,15168,0,-.38E-6,0
INMARSAT 4-F2 (SOUTHPAN/PRN 122),2005-044A,2026-06-09T12:18:30.055968,1.00272088,.00029278,5.0839,43.7021,32.7609,149.5421,0,U,28899,999,7544,0,-.246E-5,0
GPS BIIRM-2 (PRN 31),2006-042A,2026-06-09T06:25:00.717888,2.00570326,.01064367,54.7097,151.6534,54.2234,127.1175,0,U,29486,999,14423,0,.113E-5,0
GPS BIIRM-3 (PRN 12),2006-052A,2026-06-08T22:36:58.872384,2.00557765,.00853547,54.9359,214.3332,90.7851,270.2705,0,U,29601,999,14324,0,.59E-6,0
GPS BIIRM-4 (PRN 15),2007-047A,2026-06-09T05:56:01.637952,2.00555611,.01664079,54.0894,80.3929,87.2179,274.6850,0,U,32260,999,13665,0,-.19E-6,0
COSMOS 2433 (720),2007-052A,2026-06-08T22:31:04.856160,2.13104388,.00021783,65.5817,316.2114,191.2696,168.7248,0,U,32275,999,14488,0,-.3E-6,0
COSMOS 2432 (719),2007-052B,2026-06-09T10:52:20.966880,2.13103447,.00078537,65.5988,316.3216,333.7560,5.0648,0,U,32276,999,14491,0,-.32E-6,0
GPS BIIRM-5 (PRN 29),2007-062A,2026-06-08T14:03:50.151168,2.00559578,.00355852,55.0388,274.4987,165.0710,204.7147,0,U,32384,999,13534,0,-.38E-6,0
COSMOS 2434 (721),2007-065A,2026-06-07T05:55:45.925248,2.13101527,.0001095,64.3173,192.2510,341.2525,51.1973,0,U,32393,999,14356,0,.85E-6,0
COSMOS 2436 (723),2007-065C,2026-06-09T03:23:55.190400,2.13100327,.00172463,64.3259,192.2593,354.2289,184.0033,0,U,32395,999,14355,0,.105E-5,0
GPS BIIRM-6 (PRN 07),2008-012A,2026-06-09T03:49:22.707840,2.00572211,.02111073,54.4963,150.2454,247.7440,110.0124,0,U,32711,999,13359,0,.112E-5,0
GPS BIIRM-8 (PRN 05),2009-043A,2026-06-08T07:17:15.461088,2.00554745,.0053714,56.2048,27.8007,82.8286,29.7907,0,U,35752,999,12318,0,-.67E-6,0
COSMOS 2456 (730),2009-070A,2026-06-06T19:46:03.717696,2.13103969,.00050255,65.0054,71.3252,326.4332,259.2835,0,U,36111,999,12820,0,-.13E-6,0
COSMOS 2457 (733),2009-070B,2026-06-09T09:46:25.802976,2.13101358,.00024738,64.9923,71.0818,128.0679,47.1802,0,U,36112,999,12826,0,-.24E-6,0
COSMOS 2460 (732),2010-007C,2026-06-05T22:24:35.054784,2.13101712,.00021228,65.4275,314.8474,103.7485,288.7249,0,U,36402,999,12649,0,-.3E-6,0
GPS BIIF-1  (PRN 25),2010-022A,2026-06-08T23:28:17.205024,2.00562009,.01263122,54.2709,208.8929,66.1241,291.7290,0,U,36585,999,11742,0,.69E-6,0
BEIDOU-2 IGSO-1 (C06),2010-036A,2026-06-09T16:20:40.430400,1.00274638,.00592781,54.3011,163.0273,225.1426,222.7155,0,U,36828,999,5802,0,-.31E-6,0
BEIDOU-2 G4 (C04),2010-057A,2026-06-09T14:44:39.312096,1.00271796,.00048931,3.6271,68.9921,199.5551,10.6204,0,U,37210,999,5721,0,-.96E-6,0
BEIDOU-2 IGSO-2 (C07),2010-068A,2026-06-06T17:56:34.315296,1.00287050,.00550091,47.5684,271.9632,212.6052,147.2432,0,U,37256,999,5669,0,-.212E-5,0
BEIDOU-2 IGSO-3 (C08),2011-013A,2026-06-09T14:15:47.178720,1.00270057,.00343795,62.3960,40.2253,184.4451,355.1654,0,U,37384,999,5558,0,-.192E-5,0
GSAT-8 (GAGAN/PRN 127),2011-022A,2026-06-09T11:53:19.593888,1.00271237,.00022605,2.1102,81.9156,209.0541,200.3007,0,U,37605,999,5314,0,.102E-5,0
BEIDOU-2 IGSO-4 (C09),2011-038A,2026-06-06T14:49:08.416128,1.00287300,.01590706,54.5986,165.7673,231.3681,173.1210,0,U,37763,999,5454,0,.66E-6,0
GSAT0101 (GALILEO-PFM),2011-060A,2026-06-06T06:57:27.595008,1.70475774,.0003295,56.9979,342.0567,48.4785,311.5631,0,U,37846,999,9093,0,-.66E-6,0
GSAT0102 (GALILEO-FM2),2011-060B,2026-06-07T09:39:10.082592,1.70476015,.00034343,57.0009,342.0270,13.7700,354.5257,0,U,37847,999,9096,0,-.63E-6,0
COSMOS 2476 (744),2011-064A,2026-06-09T05:09:00.094752,2.13104029,.00229683,65.2655,73.1406,239.4720,288.8257,0,U,37867,999,11359,0,-.2E-6,0
COSMOS 2477 (745),2011-064B,2026-06-09T09:25:20.214048,2.13103206,.00199946,65.2721,73.2137,240.7099,244.5150,0,U,37868,999,11359,0,-.21E-6,0
COSMOS 2475 (743),2011-064C,2026-06-09T12:26:57.018336,2.13102025,.00258126,65.2789,73.2312,253.5713,283.5609,0,U,37869,999,11360,0,-.22E-6,0
